{"type": "FeatureCollection", "features": [ {"type": "Feature", "properties": {"norad_id": 30501, "name": "FENGYUN 1C DEB", "group": "fengyun-1c-debris", "lat": -73.4392150170274, "lon": 140.04295697864333, "alt_km": 817.1054528509976, "timestamp": "2025-12-27T06:41:31.203277+00:00", "meta": {"OBJECT_NAME": "FENGYUN 1C DEB", "OBJECT_ID": "1999-025AHP", "EPOCH": "2025-12-26T23:01:12.510912", "MEAN_MOTION": 14.25439676, "ECCENTRICITY": 0.00409252, "INCLINATION": 99.0851, "RA_OF_ASC_NODE": 352.2655, "ARG_OF_PERICENTER": 161.2358, "MEAN_ANOMALY": 254.9162, "EPHEMERIS_TYPE": 0, "CLASSIFICATION_TYPE": "U", "NORAD_CAT_ID": 30501, "ELEMENT_SET_NO": 999, "REV_AT_EPOCH": 97122, "BSTAR": 0.0017335506, "MEAN_MOTION_DOT": 4.083e-05, "MEAN_MOTION_DDOT": 0}, "tle": {"line1": "1 30501U 99025AHP 25360.95917258  .00004083  00000+0  17336-2 0  9992", "line2": "2 30501  99.0851 352.2655 0040925 161.2358 254.9162 14.25439676971224"}}, "geometry": {"type": "Point", "coordinates": [140.04295697864333, -73.4392150170274]}}, {"type": "Feature", "properties": {"norad_id": 30503, "name": "FENGYUN 1C DEB", "group": "fengyun-1c-debris", "lat": -12.185221282488731, "lon": -152.71147642348865, "alt_km": 846.2675095688564, "timestamp": "2025-12-27T06:41:31.203287+00:00", "meta": {"OBJECT_NAME": "FENGYUN 1C DEB", "OBJECT_ID": "1999-025AHR", "EPOCH": "2025-12-26T05:37:34.967136", "MEAN_MOTION": 14.16139535, "ECCENTRICITY": 0.0008379, "INCLINATION": 99.2039, "RA_OF_ASC_NODE": 204.2034, "ARG_OF_PERICENTER": 225.3529, "MEAN_ANOMALY": 200.8189, "EPHEMERIS_TYPE": 0, "CLASSIFICATION_TYPE": "U", "NORAD_CAT_ID": 30503, "ELEMENT_SET_NO": 999, "REV_AT_EPOCH": 97537, "BSTAR": 0.00027276, "MEAN_MOTION_DOT": 4.92e-06, "MEAN_MOTION_DDOT": 0}, "tle": {"line1": "1 30503U 99025AHR 25360.23443249  .00000492  00000+0  27276-3 0  9994", "line2": "2 30503  99.2039 204.2034 0008379 225.3529 200.8189 14.16139535975372"}}, "geometry": {"type": "Point", "coordinates": [-152.71147642348865, -12.185221282488731]}}, {"type": "Feature", "properties": {"norad_id": 30504, "name": "FENGYUN 1C DEB", "group": "fengyun-1c-debris", "lat": 66.11987605472466, "lon": 26.723424826216092, "alt_km": 840.3030870419279, "timestamp": "2025-12-27T06:41:31.203297+00:00", "meta": {"OBJECT_NAME": "FENGYUN 1C DEB", "OBJECT_ID": "1999-025AHS", "EPOCH": "2025-12-26T01:46:25.269312", "MEAN_MOTION": 14.2052841, "ECCENTRICITY": 0.01126851, "INCLINATION": 99.0239, "RA_OF_ASC_NODE": 46.5293, "ARG_OF_PERICENTER": 178.5319, "MEAN_ANOMALY": 212.0862, "EPHEMERIS_TYPE": 0, "CLASSIFICATION_TYPE": "U", "NORAD_CAT_ID": 30504, "ELEMENT_SET_NO": 999, "REV_AT_EPOCH": 97583, "BSTAR": 0.00054943214, "MEAN_MOTION_DOT": 1.212e-05, "MEAN_MOTION_DDOT": 0}, "tle": {"line1": "1 30504U 99025AHS 25360.07390358  .00001212  00000+0  54943-3 0  9991", "line2": "2 30504  99.0239  46.5293 0112685 178.5319 212.0862 14.20528410975832"}}, "geometry": {"type": "Point", "coordinates": [26.723424826216092, 66.11987605472466]}}, {"type": "Feature", "properties": {"norad_id": 30505, "name": "FENGYUN 1C DEB", "group": "fengyun-1c-debris", "lat": 49.9945076596533, "lon": 70.32151351633375, "alt_km": 853.5731328101674, "timestamp": "2025-12-27T06:41:31.203307+00:00", "meta": {"OBJECT_NAME": "FENGYUN 1C DEB", "OBJECT_ID": "1999-025AHT", "EPOCH": "2025-12-26T17:33:46.205856", "MEAN_MOTION": 14.22136081, "ECCENTRICITY": 0.00643853, "INCLINATION": 98.9248, "RA_OF_ASC_NODE": 80.5595, "ARG_OF_PERICENTER": 202.4913, "MEAN_ANOMALY": 289.6348, "EPHEMERIS_TYPE": 0, "CLASSIFICATION_TYPE": "U", "NORAD_CAT_ID": 30505, "ELEMENT_SET_NO": 999, "REV_AT_EPOCH": 97122, "BSTAR": 0.0017547382, "MEAN_MOTION_DOT": 3.926e-05, "MEAN_MOTION_DDOT": 0}, "tle": {"line1": "1 30505U 99025AHT 25360.73178479  .00003926  00000+0  17547-2 0  9995", "line2": "2 30505  98.9248  80.5595 0064385 202.4913 289.6348 14.22136081971223"}}, "geometry": {"type": "Point", "coordinates": [70.32151351633375, 49.9945076596533]}}, {"type": "Feature", "properties": {"norad_id": 30506, "name": "FENGYUN 1C DEB", "group": "fengyun-1c-debris", "lat": 77.98576209590901, "lon": -127.65718171770611, "alt_km": 900.9741789061572, "timestamp": "2025-12-27T06:41:31.203317+00:00", "meta": {"OBJECT_NAME": "FENGYUN 1C DEB", "OBJECT_ID": "1999-025AHU", "EPOCH": "2025-12-26T18:32:52.125792", "MEAN_MOTION": 14.08666289, "ECCENTRICITY": 0.00697585, "INCLINATION": 98.7571, "RA_OF_ASC_NODE": 5.4424, "ARG_OF_PERICENTER": 308.0792, "MEAN_ANOMALY": 105.1374, "EPHEMERIS_TYPE": 0, "CLASSIFICATION_TYPE": "U", "NORAD_CAT_ID": 30506, "ELEMENT_SET_NO": 999, "REV_AT_EPOCH": 97019, "BSTAR": 0.00027769692, "MEAN_MOTION_DOT": 4.45e-06, "MEAN_MOTION_DDOT": 0}, "tle": {"line1": "1 30506U 99025AHU 25360.77282553  .00000445  00000+0  27770-3 0  9992", "line2": "2 30506  98.7571   5.4424 0069758 308.0792 105.1374 14.08666289970193"}}, "geometry": {"type": "Point", "coordinates": [-127.65718171770611, 77.98576209590901]}}, {"type": "Feature", "properties": {"norad_id": 30507, "name": "FENGYUN 1C DEB", "group": "fengyun-1c-debris", "lat": 80.84592044511395, "lon": -34.10274739091666, "alt_km": 773.6174209713818, "timestamp": "2025-12-27T06:41:31.203327+00:00", "meta": {"OBJECT_NAME": "FENGYUN 1C DEB", "OBJECT_ID": "1999-025AHV", "EPOCH": "2025-12-26T10:28:21.707040", "MEAN_MOTION": 14.13235822, "ECCENTRICITY": 0.0128341, "INCLINATION": 99.0125, "RA_OF_ASC_NODE": 65.0194, "ARG_OF_PERICENTER": 138.0093, "MEAN_ANOMALY": 350.7581, "EPHEMERIS_TYPE": 0, "CLASSIFICATION_TYPE": "U", "NORAD_CAT_ID": 30507, "ELEMENT_SET_NO": 999, "REV_AT_EPOCH": 96691, "BSTAR": 0.0010894, "MEAN_MOTION_DOT": 2.163e-05, "MEAN_MOTION_DDOT": 0}, "tle": {"line1": "1 30507U 99025AHV 25360.43636235  .00002163  00000+0  10894-2 0  9993", "line2": "2 30507  99.0125  65.0194 0128341 138.0093 350.7581 14.13235822966912"}}, "geometry": {"type": "Point", "coordinates": [-34.10274739091666, 80.84592044511395]}}, {"type": "Feature", "properties": {"norad_id": 30509, "name": "FENGYUN 1C DEB", "group": "fengyun-1c-debris", "lat": -23.86587309368936, "lon": -124.00444834427739, "alt_km": 821.0369203526434, "timestamp": "2025-12-27T06:41:31.203337+00:00", "meta": {"OBJECT_NAME": "FENGYUN 1C DEB", "OBJECT_ID": "1999-025AHX", "EPOCH": "2025-12-24T02:45:50.090976", "MEAN_MOTION": 14.07725961, "ECCENTRICITY": 0.01024574, "INCLINATION": 98.4648, "RA_OF_ASC_NODE": 229.2516, "ARG_OF_PERICENTER": 31.4768, "MEAN_ANOMALY": 121.2979, "EPHEMERIS_TYPE": 0, "CLASSIFICATION_TYPE": "U", "NORAD_CAT_ID": 30509, "ELEMENT_SET_NO": 999, "REV_AT_EPOCH": 95882, "BSTAR": 0.0022392549, "MEAN_MOTION_DOT": 3.936e-05, "MEAN_MOTION_DDOT": 0}, "tle": {"line1": "1 30509U 99025AHX 25358.11516309  .00003936  00000+0  22393-2 0  9992", "line2": "2 30509  98.4648 229.2516 0102457  31.4768 121.2979 14.07725961958828"}}, "geometry": {"type": "Point", "coordinates": [-124.00444834427739, -23.86587309368936]}}, {"type": "Feature", "properties": {"norad_id": 30510, "name": "FENGYUN 1C DEB", "group": "fengyun-1c-debris", "lat": -59.6273607411649, "lon": 29.90854675423879, "alt_km": 912.8965216963234, "timestamp": "2025-12-27T06:41:31.203348+00:00", "meta": {"OBJECT_NAME": "FENGYUN 1C DEB", "OBJECT_ID": "1999-025AHY", "EPOCH": "2025-12-26T14:35:34.185120", "MEAN_MOTION": 14.12917396, "ECCENTRICITY": 0.007858, "INCLINATION": 99.2449, "RA_OF_ASC_NODE": 13.0806, "ARG_OF_PERICENTER": 127.5961, "MEAN_ANOMALY": 1.2752, "EPHEMERIS_TYPE": 0, "CLASSIFICATION_TYPE": "U", "NORAD_CAT_ID": 30510, "ELEMENT_SET_NO": 999, "REV_AT_EPOCH": 96770, "BSTAR": 0.0012701, "MEAN_MOTION_DOT": 2.389e-05, "MEAN_MOTION_DDOT": 0}, "tle": {"line1": "1 30510U 99025AHY 25360.60803455  .00002389  00000+0  12701-2 0  9995", "line2": "2 30510  99.2449  13.0806 0078580 127.5961   1.2752 14.12917396967704"}}, "geometry": {"type": "Point", "coordinates": [29.90854675423879, -59.6273607411649]}}, {"type": "Feature", "properties": {"norad_id": 30514, "name": "FENGYUN 1C DEB", "group": "fengyun-1c-debris", "lat": 49.57111384780892, "lon": -145.56849905035773, "alt_km": 745.7330349485801, "timestamp": "2025-12-27T06:41:31.203358+00:00", "meta": {"OBJECT_NAME": "FENGYUN 1C DEB", "OBJECT_ID": "1999-025AJC", "EPOCH": "2025-12-26T23:24:34.323264", "MEAN_MOTION": 14.34402799, "ECCENTRICITY": 0.01740634, "INCLINATION": 98.412, "RA_OF_ASC_NODE": 24.1333, "ARG_OF_PERICENTER": 51.964, "MEAN_ANOMALY": 309.7112, "EPHEMERIS_TYPE": 0, "CLASSIFICATION_TYPE": "U", "NORAD_CAT_ID": 30514, "ELEMENT_SET_NO": 999, "REV_AT_EPOCH": 98429, "BSTAR": 0.00058461869, "MEAN_MOTION_DOT": 1.905e-05, "MEAN_MOTION_DDOT": 0}, "tle": {"line1": "1 30514U 99025AJC 25360.97539726  .00001905  00000+0  58462-3 0  9994", "line2": "2 30514  98.4120  24.1333 0174063  51.9640 309.7112 14.34402799984299"}}, "geometry": {"type": "Point", "coordinates": [-145.56849905035773, 49.57111384780892]}}, {"type": "Feature", "properties": {"norad_id": 30515, "name": "FENGYUN 1C DEB", "group": "fengyun-1c-debris", "lat": -30.15978297187221, "lon": 50.69553218774201, "alt_km": 1393.4221330175278, "timestamp": "2025-12-27T06:41:31.203369+00:00", "meta": {"OBJECT_NAME": "FENGYUN 1C DEB", "OBJECT_ID": "1999-025AJD", "EPOCH": "2025-12-26T08:47:47.397984", "MEAN_MOTION": 13.63837992, "ECCENTRICITY": 0.0496979, "INCLINATION": 98.509, "RA_OF_ASC_NODE": 234.8835, "ARG_OF_PERICENTER": 38.5841, "MEAN_ANOMALY": 14.3797, "EPHEMERIS_TYPE": 0, "CLASSIFICATION_TYPE": "U", "NORAD_CAT_ID": 30515, "ELEMENT_SET_NO": 999, "REV_AT_EPOCH": 93516, "BSTAR": 0.00099366, "MEAN_MOTION_DOT": 1.797e-05, "MEAN_MOTION_DDOT": 0}, "tle": {"line1": "1 30515U 99025AJD 25360.36652081  .00001797  00000+0  99366-3 0  9995", "line2": "2 30515  98.5090 234.8835 0496979  38.5841  14.3797 13.63837992935169"}}, "geometry": {"type": "Point", "coordinates": [50.69553218774201, -30.15978297187221]}}]}